O3B FM5                 
1 39188U 13031A   22300.60486420 -.00000012  00000+0  00000+0 0  9996
2 39188   0.0657  14.7356 0002718 206.5221 138.7302  5.00115251170564
O3B FM4                 
1 39189U 13031B   22301.26052046 -.00000013  00000+0  00000+0 0  9994
2 39189   0.0479 352.5743 0002652 228.3363 139.0776  5.00115792170622
O3B FM2                 
1 39190U 13031C   22301.75173957 -.00000014  00000+0  00000+0 0  9996
2 39190   0.0467 346.4485 0002666 233.7190 139.8206  5.00115078170699
O3B PFM                 
1 39191U 13031D   22301.77802337 -.00000014  00000+0  00000+0 0  9990
2 39191   0.0579  10.2865 0002693 207.5464 142.1560  5.00115685170251
O3B FM3                 
1 40079U 14038A   22301.23314771 -.00000013  00000+0  00000+0 0  9995
2 40079   0.0523 359.9332 0004738 196.8777 163.1814  5.00115305146615
O3B FM7                 
1 40080U 14038B   22301.77888808 -.00000014  00000+0  00000+0 0  9994
2 40080   0.0535 355.3171 0002194 265.8998  98.7661  5.00115589151474
O3B FM6                 
1 40081U 14038C   22300.60593002 -.00000012  00000+0  00000+0 0  9993
2 40081   0.0515 359.5311 0002781 218.3880 142.0697  5.00115271151357
O3B FM8                 
1 40082U 14038D   22301.25950190 -.00000013  00000+0  00000+0 0  9992
2 40082   0.0488 357.4159 0002652 217.2650 145.3100  5.00115639151515
O3B FM10                
1 40348U 14083A   22301.28560044 -.00000013  00000+0  00000+0 0  9995
2 40348   0.0527   9.5876 0002668 208.0445 142.3574  5.00115106143468
O3B FM11                
1 40349U 14083B   22301.29903657 -.00000013  00000+0  00000+0 0  9998
2 40349   0.0569   7.1398 0002726 225.3302 127.5133  5.00115345143480
O3B FM12                
1 40350U 14083C   22301.72603634 -.00000014  00000+0  00000+0 0  9991
2 40350   0.0560   6.7288 0002830 213.3706 139.8875  5.00115198143516
O3B FM9                 
1 40351U 14083D   22301.55296629 -.00000014  00000+0  00000+0 0  9995
2 40351   0.0581   6.8952 0002651 212.0974 140.9962  5.00116078143645
DIAMOND RED             
1 42783U 17036U   22301.67710511  .00012153  00000+0  42255-3 0  9999
2 42783  97.1849 337.9716 0009062 205.7791 154.2999 15.29825552297290
DIAMOND GREEN           
1 42785U 17036W   22301.61203694  .00012679  00000+0  44018-3 0  9996
2 42785  97.1849 337.9738 0008858 207.0641 153.0139 15.29865608297353
DIAMOND BLUE            
1 42786U 17036X   22301.67665784  .00012419  00000+0  43128-3 0  9998
2 42786  97.1852 338.0282 0008926 207.3353 152.7420 15.29859231297368
LEO VANTAGE 1           
1 43113U 18004C   22302.19050887  .00004741  00000+0  37886-3 0  9992
2 43113  99.2431  36.5239 0399873 149.3552 213.1673 14.54458819243672
O3B FM15                
1 43231U 18024A   22302.21858091 -.00000015  00000+0  00000+0 0  9996
2 43231   0.0501  11.9789 0003003 207.6915 140.3152  5.00116038 84813
O3B FM16                
1 43232U 18024B   22301.47242125 -.00000014  00000+0  00000+0 0  9998
2 43232   0.0476  15.9798 0002979 203.7374 140.2690  5.00115852 84523
O3B FM14                
1 43233U 18024C   22301.71199616 -.00000014  00000+0  00000+0 0  9992
2 43233   0.0463  17.0308 0002861 205.8611 137.0937  5.00115287 84549
O3B FM13                
1 43234U 18024D   22301.36574349 -.00000013  00000+0  00000+0 0  9993
2 43234   0.0595  13.5736 0003803 208.5399 137.8653  5.00115219 84641
O3B FM20                
1 44112U 19020A   22300.73924226 -.00000012  00000+0  00000+0 0  9998
2 44112   0.0522   8.9883 0003220 215.1802 135.8141  5.00115408 65104
O3B FM19                
1 44113U 19020B   22301.36574466 -.00000013  00000+0  00000+0 0  9997
2 44113   0.0744  16.0544 0001951 229.7562 114.1771  5.00115083 65016
O3B FM17                
1 44114U 19020C   22301.24632215 -.00000013  00000+0  00000+0 0  9992
2 44114   0.0333   2.1143 0003121 217.1274 140.7438  5.00115570 65098
O3B FM18                
1 44115U 19020D   22301.39271652 -.00000013  00000+0  00000+0 0  9993
2 44115   0.0526   9.1772 0002919 207.9834 142.8273  5.00115719 65221
SALSAT                  
1 46495U 20068K   22301.75525098  .00002687  00000+0  19254-3 0  9999
2 46495  97.7418 243.2132 0016156 178.7645 181.3624 15.05153913114239
